OBJECT_NAME,OBJECT_ID,EPOCH,MEAN_MOTION,ECCENTRICITY,INCLINATION,RA_OF_ASC_NODE,ARG_OF_PERICENTER,MEAN_ANOMALY,EPHEMERIS_TYPE,CLASSIFICATION_TYPE,NORAD_CAT_ID,ELEMENT_SET_NO,REV_AT_EPOCH,BSTAR,MEAN_MOTION_DOT,MEAN_MOTION_DDOT
IRIDIUM 155,2018-061E,2025-07-15T23:11:34.454400,14.34217487,.0002027,86.3984,197.1529,82.0496,278.0930,0,U,43573,999,36516,-.61686E-5,.3E-7,0
IRIDIUM 154,2018-061F,2025-07-15T22:44:10.508640,14.34217457,.0002168,86.3989,197.2775,88.8863,271.2581,0,U,43574,999,36521,-.40635E-5,.8E-7,0
IRIDIUM 163,2018-061G,2025-07-15T22:16:46.495488,14.34217394,.0002304,86.3986,197.2115,85.9386,274.2073,0,U,43575,999,36518,-.14837E-4,-.22E-6,0
IRIDIUM 156,2018-061H,2025-07-15T18:19:18.425280,14.34217684,.0001886,86.3987,197.2874,83.6047,276.5363,0,U,43576,999,36515,-.13031E-5,.16E-6,0
IRIDIUM 164,2018-061J,2025-07-15T22:53:18.431520,14.34217766,.0002177,86.3983,197.2426,94.5123,265.6322,0,U,43577,999,36522,-.32474E-5,.11E-6,0
IRIDIUM 159,2018-061K,2025-07-15T22:07:38.460288,14.34217493,.0002335,86.3987,197.1999,92.7127,267.4336,0,U,43578,999,36518,-.12135E-4,-.14E-6,0
BEIDOU-3 M5,2018-062A,2025-07-15T10:27:24.071328,1.86228540,.0005634,54.1009,193.7526,283.7124,76.2277,0,U,43581,999,4736,0,.99E-6,0
BEIDOU-3 M6,2018-062B,2025-07-15T20:04:40.329696,1.86229466,.0004721,54.1007,193.7282,2.2945,357.7109,0,U,43582,999,4737,0,.103E-5,0
GAOFEN-11 01,2018-063A,2025-07-16T03:46:01.969536,15.44357104,.0007776,97.1771,261.7153,122.6189,237.5811,0,U,43585,999,38830,.18017E-3,.8233E-4,0
TELKOM 4 (MERAH PUTIH),2018-064A,2025-07-15T20:50:38.526144,1.00270084,.0001525,0.0169,315.0968,195.8600,203.6464,0,U,43587,999,2550,0,-.336E-5,0
BEIDOU-3 M12,2018-067A,2025-07-13T14:59:48.810336,1.86227713,.0007307,54.1938,192.5204,23.7839,336.2517,0,U,43602,999,4681,0,.88E-6,0
BEIDOU-3 M11,2018-067B,2025-07-12T03:33:17.406432,1.86227249,.0004181,54.1910,192.5348,6.1637,353.8492,0,U,43603,999,4681,0,.85E-6,0
HAIYANG-1C,2018-068A,2025-07-16T04:09:32.444352,14.34115882,.0010779,98.5606,268.6211,18.7661,341.3919,0,U,43609,999,35892,.42172E-4,.74E-6,0
TELSTAR 18V,2018-069A,2025-07-15T03:51:38.628864,1.00270889,.0002233,0.0340,262.5472,214.2177,12.3937,0,U,43611,999,2525,0,-.286E-5,0
ICESAT-2,2018-070A,2025-07-15T22:05:44.557440,15.28289472,.0006867,91.9879,200.4419,68.1362,292.0617,0,U,43613,999,38110,.89526E-4,.2471E-4,0
SSTL S1-4,2018-071A,2025-07-16T03:55:24.039552,14.96248114,.0002322,97.5512,76.7151,148.1783,211.9580,0,U,43618,999,37269,.62223E-4,.647E-5,0
NOVASAR 1,2018-071B,2025-07-16T04:38:27.364992,14.95984664,.0001859,97.5542,77.2910,139.0403,221.0959,0,U,43619,999,37269,.1901E-4,.158E-5,0
BEIDOU-3 M13,2018-072A,2025-07-15T07:52:40.116576,1.86231329,.0006021,56.3240,73.8007,325.2506,34.7822,0,U,43622,999,4638,0,-.26E-6,0
BEIDOU-3 M14,2018-072B,2025-07-13T13:59:19.283712,1.86231386,.0005189,56.3243,73.8524,1.5500,358.5268,0,U,43623,999,4634,0,-.18E-6,0
AZERSPACE 2 (IS-38),2018-074A,2025-07-12T17:05:34.605312,1.00269658,.0001696,0.0207,48.0823,76.1428,108.1347,0,U,43632,999,2503,0,.145E-5,0
HORIZONS-3E,2018-074B,2025-07-14T14:13:38.468640,1.00271129,.0000933,0.0594,219.5120,64.5997,31.0073,0,U,43633,999,2495,0,-.23E-6,0
CENTISPACE-1 S1,2018-075A,2025-07-16T03:59:06.592128,14.59474404,.0010116,97.9090,232.1938,96.5989,263.6363,0,U,43636,999,36153,.86704E-4,.368E-5,0
SAOCOM 1A,2018-076A,2025-07-16T03:15:52.108992,14.82162670,.0001429,97.8890,23.6971,92.5900,267.5477,0,U,43641,999,36632,.39392E-4,.261E-5,0
YAOGAN-32 A,2018-077A,2025-07-16T05:25:24.208896,14.62608325,.0001606,97.9396,229.8657,99.3001,260.8382,0,U,43642,999,36072,.10064E-3,.467E-5,0
YAOGAN-32 B,2018-077B,2025-07-16T03:46:45.388992,14.62609802,.0001635,97.9396,229.7593,96.2973,263.8415,0,U,43643,999,36070,.99559E-4,.461E-5,0
BEIDOU-3 M16,2018-078A,2025-07-15T08:28:38.852544,1.86232184,.0006425,54.3940,311.7756,31.3324,328.7310,0,U,43647,999,4588,0,-.65E-6,0
BEIDOU-3 M15,2018-078B,2025-07-14T09:48:18.593856,1.86232319,.0003375,54.3906,311.8101,49.2108,310.8430,0,U,43648,999,4588,0,-.62E-6,0
AEHF-4 (USA 288),2018-079A,2025-07-16T04:30:06.539616,1.00267403,.0046327,1.4594,348.2733,3.4475,302.5020,0,U,43651,999,2492,0,-.266E-5,0
HAIYANG-2B,2018-081A,2025-07-16T03:55:24.430944,13.79304172,.0002133,99.3327,205.9198,90.1980,269.9416,0,U,43655,999,33860,.35109E-4,-.8E-7,0
COSMOS 2528,2018-082A,2025-07-15T22:48:26.186112,13.96678256,.0007276,67.1472,174.9624,255.2406,104.7872,0,U,43657,999,34299,.17004E-4,-.52E-6,0
CFOSAT,2018-083A,2025-07-16T05:11:38.975712,15.16194632,.0002744,97.3626,206.6093,95.4743,264.6803,0,U,43662,999,37161,.13532E-3,.2548E-4,0
