IRIDIUM 155             
1 43573U 18061E   25196.96637100  .00000003  00000+0 -61686-5 0  9998
2 43573  86.3984 197.1529 0002027  82.0496 278.0930 14.34217487365167
IRIDIUM 154             
1 43574U 18061F   25196.94734385  .00000008  00000+0 -40635-5 0  9996
2 43574  86.3989 197.2775 0002168  88.8863 271.2581 14.34217457365215
IRIDIUM 163             
1 43575U 18061G   25196.92831592 -.00000022  00000+0 -14837-4 0  9994
2 43575  86.3986 197.2115 0002304  85.9386 274.2073 14.34217394365186
IRIDIUM 156             
1 43576U 18061H   25196.76340770  .00000016  00000+0 -13031-5 0  9998
2 43576  86.3987 197.2874 0001886  83.6047 276.5363 14.34217684365159
IRIDIUM 164             
1 43577U 18061J   25196.95368555  .00000011  00000+0 -32474-5 0  9998
2 43577  86.3983 197.2426 0002177  94.5123 265.6322 14.34217766365222
IRIDIUM 159             
1 43578U 18061K   25196.92197292 -.00000014  00000+0 -12135-4 0  9999
2 43578  86.3987 197.1999 0002335  92.7127 267.4336 14.34217493365188
BEIDOU-3 M5             
1 43581U 18062A   25196.43569527  .00000099  00000+0  00000+0 0  9998
2 43581  54.1009 193.7526 0005634 283.7124  76.2277  1.86228540 47367
BEIDOU-3 M6             
1 43582U 18062B   25196.83657789  .00000103  00000+0  00000+0 0  9997
2 43582  54.1007 193.7282 0004721   2.2945 357.7109  1.86229466 47376
GAOFEN-11 01            
1 43585U 18063A   25197.15696724  .00008233  00000+0  18017-3 0  9992
2 43585  97.1771 261.7153 0007776 122.6189 237.5811 15.44357104388303
TELKOM 4 (MERAH PUTIH)  
1 43587U 18064A   25196.86850146 -.00000336  00000+0  00000+0 0  9998
2 43587   0.0169 315.0968 0001525 195.8600 203.6464  1.00270084 25508
BEIDOU-3 M12            
1 43602U 18067A   25194.62487049  .00000088  00000+0  00000+0 0  9992
2 43602  54.1938 192.5204 0007307  23.7839 336.2517  1.86227713 46812
BEIDOU-3 M11            
1 43603U 18067B   25193.14811813  .00000085  00000+0  00000+0 0  9996
2 43603  54.1910 192.5348 0004181   6.1637 353.8492  1.86227249 46811
HAIYANG-1C              
1 43609U 18068A   25197.17329218  .00000074  00000+0  42172-4 0  9992
2 43609  98.5606 268.6211 0010779  18.7661 341.3919 14.34115882358921
TELSTAR 18V             
1 43611U 18069A   25196.16086376 -.00000286  00000+0  00000+0 0  9994
2 43611   0.0340 262.5472 0002233 214.2177  12.3937  1.00270889 25250
ICESAT-2                
1 43613U 18070A   25196.92065460  .00002471  00000+0  89526-4 0  9995
2 43613  91.9879 200.4419 0006867  68.1362 292.0617 15.28289472381103
SSTL S1-4               
1 43618U 18071A   25197.16347268  .00000647  00000+0  62223-4 0  9995
2 43618  97.5512  76.7151 0002322 148.1783 211.9580 14.96248114372694
NOVASAR 1               
1 43619U 18071B   25197.19337228  .00000158  00000+0  19010-4 0  9997
2 43619  97.5542  77.2910 0001859 139.0403 221.0959 14.95984664372697
BEIDOU-3 M13            
1 43622U 18072A   25196.32824209 -.00000026  00000+0  00000+0 0  9995
2 43622  56.3240  73.8007 0006021 325.2506  34.7822  1.86231329 46388
BEIDOU-3 M14            
1 43623U 18072B   25194.58286208 -.00000018  00000+0  00000+0 0  9994
2 43623  56.3243  73.8524 0005189   1.5500 358.5268  1.86231386 46348
AZERSPACE 2 (IS-38)     
1 43632U 18074A   25193.71220608  .00000145  00000+0  00000+0 0  9992
2 43632   0.0207  48.0823 0001696  76.1428 108.1347  1.00269658 25035
HORIZONS-3E             
1 43633U 18074B   25195.59280635 -.00000023  00000+0  00000+0 0  9993
2 43633   0.0594 219.5120 0000933  64.5997  31.0073  1.00271129 24951
CENTISPACE-1 S1         
1 43636U 18075A   25197.16604852  .00000368  00000+0  86704-4 0  9994
2 43636  97.9090 232.1938 0010116  96.5989 263.6363 14.59474404361530
SAOCOM 1A               
1 43641U 18076A   25197.13601978  .00000261  00000+0  39392-4 0  9997
2 43641  97.8890  23.6971 0001429  92.5900 267.5477 14.82162670366325
YAOGAN-32 A             
1 43642U 18077A   25197.22597464  .00000467  00000+0  10064-3 0  9995
2 43642  97.9396 229.8657 0001606  99.3001 260.8382 14.62608325360722
YAOGAN-32 B             
1 43643U 18077B   25197.15746978  .00000461  00000+0  99559-4 0  9995
2 43643  97.9396 229.7593 0001635  96.2973 263.8415 14.62609802360706
BEIDOU-3 M16            
1 43647U 18078A   25196.35322746 -.00000065  00000+0  00000+0 0  9993
2 43647  54.3940 311.7756 0006425  31.3324 328.7310  1.86232184 45888
BEIDOU-3 M15            
1 43648U 18078B   25195.40854854 -.00000062  00000+0  00000+0 0  9996
2 43648  54.3906 311.8101 0003375  49.2108 310.8430  1.86232319 45880
AEHF-4 (USA 288)        
1 43651U 18079A   25197.18757569 -.00000266  00000+0  00000+0 0  9999
2 43651   1.4594 348.2733 0046327   3.4475 302.5020  1.00267403 24921
HAIYANG-2B              
1 43655U 18081A   25197.16347721 -.00000008  00000+0  35109-4 0  9996
2 43655  99.3327 205.9198 0002133  90.1980 269.9416 13.79304172338602
COSMOS 2528             
1 43657U 18082A   25196.95030308 -.00000052  00000+0  17004-4 0  9998
2 43657  67.1472 174.9624 0007276 255.2406 104.7872 13.96678256342992
CFOSAT                  
1 43662U 18083A   25197.21642333  .00002548  00000+0  13532-3 0  9994
2 43662  97.3626 206.6093 0002744  95.4743 264.6803 15.16194632371616
